[{"OBJECT_NAME":"GRUS-1E","OBJECT_ID":"2021-022D","EPOCH":"2026-03-09T21:59:56.793984","MEAN_MOTION":14.99580708,"ECCENTRICITY":0.00128752,"INCLINATION":97.5572,"RA_OF_ASC_NODE":316.384,"ARG_OF_PERICENTER":314.1526,"MEAN_ANOMALY":45.8638,"EPHEMERIS_TYPE":0,"CLASSIFICATION_TYPE":"U","NORAD_CAT_ID":47935,"ELEMENT_SET_NO":999,"REV_AT_EPOCH":27107,"BSTAR":0.00017718433,"MEAN_MOTION_DOT":2.125e-5,"MEAN_MOTION_DDOT":0},{"OBJECT_NAME":"STARLINK-5995","OBJECT_ID":"2023-064J","EPOCH":"2026-03-09T14:44:24.607680","MEAN_MOTION":14.98321135,"ECCENTRICITY":0.0003054,"INCLINATION":70.0005,"RA_OF_ASC_NODE":144.6943,"ARG_OF_PERICENTER":267.8825,"MEAN_ANOMALY":92.1984,"EPHEMERIS_TYPE":0,"CLASSIFICATION_TYPE":"U","NORAD_CAT_ID":56456,"ELEMENT_SET_NO":999,"REV_AT_EPOCH":15523,"BSTAR":-0.00012353,"MEAN_MOTION_DOT":-1.566e-5,"MEAN_MOTION_DDOT":0}]
